EUTELSAT HOTBIRD 13C    
1 33459U 08065A   26195.54905372 -.00000293  00000+0  00000+0 0  9994
2 33459   3.0185  78.8670 0003341  36.5912 324.3012  1.00270909 47628
EXPRESS-AM44            
1 33595U 09007A   26195.41425913 -.00000100  00000+0  00000+0 0  9993
2 33595   3.5301  78.0579 0003638  29.7890 322.5372  1.00271004 52556
NSS-9                   
1 33749U 09008A   26195.50808684  .00000063  00000+0  00000+0 0  9992
2 33749   1.3301  82.3868 0001850  20.6552 195.2946  1.00271683 63794
TELSTAR 11N             
1 34111U 09009A   26195.45878229 -.00000258  00000+0  00000+0 0  9990
2 34111   0.0398 260.5758 0002279 209.2048 310.1278  1.00269149 46510
WGS F2 (USA 204)        
1 34713U 09017A   26195.14271506  .00000062  00000+0  00000+0 0  9990
2 34713   0.0170  31.2388 0000326 178.9825 190.6561  1.00272526 45882
SES-7 (PROTOSTAR 2)     
1 34941U 09027A   26195.29528286 -.00000351  00000+0  00000+0 0  9992
2 34941   0.0298  64.9521 0000555 168.5938 273.1405  1.00268610 62907
MEASAT-3A               
1 35362U 09032A   26195.09162029 -.00000117  00000+0  00000+0 0  9993
2 35362   0.0359 317.7686 0002568 143.9350  23.2173  1.00269864  8307
GOES 14                 
1 35491U 09033A   26195.51572480 -.00000366  00000+0  00000+0 0  9996
2 35491   1.7580  82.7016 0001894  40.4725 120.3585  1.00098395  6862
FM-5                    
1 35493U 09034A   26194.90035760 -.00000205  00000+0  00000+0 0  9998
2 35493   0.0457 259.5714 0000757  86.9227 183.2440  1.00271245 46912
TERRESTAR-1             
1 35496U 09035A   26194.52058797 -.00000064  00000+0  00000+0 0  9998
2 35496   5.1989  48.7738 0002618  55.2029 263.8324  1.00270674 62393
ASIASAT 5               
1 35696U 09042A   26195.65019315 -.00000315  00000+0  00000+0 0  9995
2 35696   0.0030 336.5386 0001613 110.5804 179.9719  1.00273000 61988
JCSAT-12 (JCSAT-RA)     
1 35755U 09044A   26195.64691693 -.00000336  00000+0  00000+0 0  9990
2 35755   0.0578 265.8043 0000766 290.5500 101.0898  1.00272262 61887
OPTUS D3                
1 35756U 09044B   26193.95034191 -.00000147  00000+0  00000+0 0  9997
2 35756   0.8917 268.2973 0002923 204.5770 316.2131  1.00268614 61823
NIMIQ 5                 
1 35873U 09050A   26195.54463369 -.00000264  00000+0  00000+0 0  9994
2 35873   0.0493 246.0373 0002523 222.6675 307.0637  1.00270933 61616
AMAZONAS 2              
1 35942U 09054A   26195.54480703 -.00000268  00000+0  00000+0 0  9990
2 35942   1.8841  82.6968 0003140  32.2990 301.5397  1.00270071 61451
COMSATBW-1              
1 35943U 09054B   26195.57753130  .00000017  00000+0  00000+0 0  9992
2 35943   0.0633 177.1942 0002627 297.0697  89.1028  1.00269664 61588
NSS-12                  
1 36032U 09058A   26195.59558377  .00000063  00000+0  00000+0 0  9995
2 36032   0.0948 269.4246 0004645 167.7886 126.6424  1.00273774 61195
THOR 6                  
1 36033U 09058B   26195.34505123  .00000000  00000+0  00000+0 0  9991
2 36033   0.0156  72.0668 0001576  42.9386 300.5854  1.00269767 61278
INTELSAT 14 (IS-14)     
1 36097U 09064A   26195.47854590 -.00000281  00000+0  00000+0 0  9999
2 36097   0.0219 302.2528 0002170 180.4414 296.9194  1.00268802 60871
EUTELSAT 36B            
1 36101U 09065A   26195.56907380  .00000104  00000+0  00000+0 0  9995
2 36101   0.5581  81.3188 0005726  33.3087  73.1652  1.00273558 60983
INTELSAT 15 (IS-15)     
1 36106U 09067A   26195.57592275 -.00000192  00000+0  00000+0 0  9994
2 36106   0.0150 324.6728 0002199 154.7318 105.5006  1.00268740 41501
WGS F3 (USA 211)        
1 36108U 09068A   26195.03722888  .00000058  00000+0  00000+0 0  9993
2 36108   0.3001  85.6351 0000590 101.4654 348.2198  1.00270731 46867
DIRECTV 12              
1 36131U 09075A   26195.56753963 -.00000111  00000+0  00000+0 0  9994
2 36131   0.0072 156.8097 0000327  69.3280 167.8714  1.00272001 46828
BEIDOU-2 G1             
1 36287U 10001A   26195.61300167 -.00000290  00000+0  00000+0 0  9995
2 36287   4.3551  60.3057 0001875 287.3614 305.9435  1.00272169 60440
SDO                     
1 36395U 10005A   26195.27947453 -.00000106  00000+0  00000+0 0  9992
2 36395  34.7062  85.9305 0001959  51.0470 153.5206  1.00277077 60336
INTELSAT 16 (IS-16)     
1 36397U 10006A   26195.54394035 -.00000252  00000+0  00000+0 0  9999
2 36397   0.0121  29.6555 0002307 108.0889 274.2677  1.00270145 59922
EWS-G2 (GOES 15)        
1 36411U 10008A   26195.59003163  .00000013  00000+0  00000+0 0  9996
2 36411   1.3507  82.4684 0005226  54.2559  71.4547  1.00268443 59910
ECHOSTAR 14             
1 36499U 10010A   26195.53553365 -.00000007  00000+0  00000+0 0  9997
2 36499   0.0450 250.8130 0001871 204.5441 270.9098  1.00271100 46825
SES-1                   
1 36516U 10016A   26195.53900032 -.00000122  00000+0  00000+0 0  9998
2 36516   0.0377 290.8449 0002371 180.9110 273.6749  1.00271624 59307
ASTRA 3B                
1 36581U 10021A   26195.56370045  .00000128  00000+0  00000+0 0  9999
2 36581   1.5379  83.2250 0004422  20.4110  55.2191  1.00269867 59141
COMSATBW-2              
1 36582U 10021B   26195.56162044  .00000081  00000+0  00000+0 0  9996
2 36582   0.0518 117.8274 0002392  15.5284  14.4770  1.00273631 59236
BEIDOU-2 G3             
1 36590U 10024A   26195.64611980 -.00000145  00000+0  00000+0 0  9997
2 36590   4.5781  61.3835 0006930 359.6036 183.6861  1.00268407 59045
