OBJECT_NAME,OBJECT_ID,EPOCH,MEAN_MOTION,ECCENTRICITY,INCLINATION,RA_OF_ASC_NODE,ARG_OF_PERICENTER,MEAN_ANOMALY,EPHEMERIS_TYPE,CLASSIFICATION_TYPE,NORAD_CAT_ID,ELEMENT_SET_NO,REV_AT_EPOCH,BSTAR,MEAN_MOTION_DOT,MEAN_MOTION_DDOT
EUTELSAT HOTBIRD 13C,2008-065A,2026-07-14T13:10:38.241408,1.00270909,.00033412,3.0185,78.8670,36.5912,324.3012,0,U,33459,999,4762,0,-.293E-5,0
EXPRESS-AM44,2009-007A,2026-07-14T09:56:31.988832,1.00271004,.00036383,3.5301,78.0579,29.7890,322.5372,0,U,33595,999,5255,0,-.1E-5,0
NSS-9,2009-008A,2026-07-14T12:11:38.702976,1.00271683,.00018507,1.3301,82.3868,20.6552,195.2946,0,U,33749,999,6379,0,.63E-6,0
TELSTAR 11N,2009-009A,2026-07-14T11:00:38.789856,1.00269149,.00022798,0.0398,260.5758,209.2048,310.1278,0,U,34111,999,4651,0,-.258E-5,0
WGS F2 (USA 204),2009-017A,2026-07-14T03:25:30.581184,1.00272526,.00003264,0.0170,31.2388,178.9825,190.6561,0,U,34713,999,4588,0,.62E-6,0
SES-7 (PROTOSTAR 2),2009-027A,2026-07-14T07:05:12.439104,1.00268610,.00005559,0.0298,64.9521,168.5938,273.1405,0,U,34941,999,6290,0,-.351E-5,0
MEASAT-3A,2009-032A,2026-07-14T02:11:55.993056,1.00269864,.00025681,0.0359,317.7686,143.9350,23.2173,0,U,35362,999,830,0,-.117E-5,0
GOES 14,2009-033A,2026-07-14T12:22:38.622720,1.00098395,.00018944,1.7580,82.7016,40.4725,120.3585,0,U,35491,999,686,0,-.366E-5,0
FM-5,2009-034A,2026-07-13T21:36:30.896640,1.00271245,.00007579,0.0457,259.5714,86.9227,183.2440,0,U,35493,999,4691,0,-.205E-5,0
TERRESTAR-1,2009-035A,2026-07-13T12:29:38.800608,1.00270674,.00026182,5.1989,48.7738,55.2029,263.8324,0,U,35496,999,6239,0,-.64E-6,0
ASIASAT 5,2009-042A,2026-07-14T15:36:16.688160,1.00273000,.0001613,0.0030,336.5386,110.5804,179.9719,0,U,35696,999,6198,0,-.315E-5,0
JCSAT-12 (JCSAT-RA),2009-044A,2026-07-14T15:31:33.622752,1.00272262,.00007667,0.0578,265.8043,290.5500,101.0898,0,U,35755,999,6188,0,-.336E-5,0
OPTUS D3,2009-044B,2026-07-12T22:48:29.541024,1.00268614,.00029239,0.8917,268.2973,204.5770,316.2131,0,U,35756,999,6182,0,-.147E-5,0
NIMIQ 5,2009-050A,2026-07-14T13:04:16.350816,1.00270933,.0002523,0.0493,246.0373,222.6675,307.0637,0,U,35873,999,6161,0,-.264E-5,0
AMAZONAS 2,2009-054A,2026-07-14T13:04:31.327392,1.00270071,.00031402,1.8841,82.6968,32.2990,301.5397,0,U,35942,999,6145,0,-.268E-5,0
COMSATBW-1,2009-054B,2026-07-14T13:51:38.704320,1.00269664,.00026272,0.0633,177.1942,297.0697,89.1028,0,U,35943,999,6158,0,.17E-6,0
NSS-12,2009-058A,2026-07-14T14:17:38.437728,1.00273774,.00046458,0.0948,269.4246,167.7886,126.6424,0,U,36032,999,6119,0,.63E-6,0
THOR 6,2009-058B,2026-07-14T08:16:52.426272,1.00269767,.00015769,0.0156,72.0668,42.9386,300.5854,0,U,36033,999,6127,0,0,0
INTELSAT 14 (IS-14),2009-064A,2026-07-14T11:29:06.365760,1.00268802,.00021707,0.0219,302.2528,180.4414,296.9194,0,U,36097,999,6087,0,-.281E-5,0
EUTELSAT 36B,2009-065A,2026-07-14T13:39:27.976320,1.00273558,.00057267,0.5581,81.3188,33.3087,73.1652,0,U,36101,999,6098,0,.104E-5,0
INTELSAT 15 (IS-15),2009-067A,2026-07-14T13:49:19.725600,1.00268740,.00021991,0.0150,324.6728,154.7318,105.5006,0,U,36106,999,4150,0,-.192E-5,0
WGS F3 (USA 211),2009-068A,2026-07-14T00:53:36.575232,1.00270731,.00005904,0.3001,85.6351,101.4654,348.2198,0,U,36108,999,4686,0,.58E-6,0
DIRECTV 12,2009-075A,2026-07-14T13:37:15.424032,1.00272001,.00003279,0.0072,156.8097,69.3280,167.8714,0,U,36131,999,4682,0,-.111E-5,0
BEIDOU-2 G1,2010-001A,2026-07-14T14:42:43.344288,1.00272169,.00018756,4.3551,60.3057,287.3614,305.9435,0,U,36287,999,6044,0,-.29E-5,0
SDO,2010-005A,2026-07-14T06:42:26.599392,1.00277077,.00019596,34.7062,85.9305,51.0470,153.5206,0,U,36395,999,6033,0,-.106E-5,0
INTELSAT 16 (IS-16),2010-006A,2026-07-14T13:03:16.446240,1.00270145,.00023078,0.0121,29.6555,108.0889,274.2677,0,U,36397,999,5992,0,-.252E-5,0
EWS-G2 (GOES 15),2010-008A,2026-07-14T14:09:38.732832,1.00268443,.00052265,1.3507,82.4684,54.2559,71.4547,0,U,36411,999,5991,0,.13E-6,0
ECHOSTAR 14,2010-010A,2026-07-14T12:51:10.107360,1.00271100,.0001871,0.0450,250.8130,204.5441,270.9098,0,U,36499,999,4682,0,-.7E-7,0
SES-1,2010-016A,2026-07-14T12:56:09.627648,1.00271624,.00023717,0.0377,290.8449,180.9110,273.6749,0,U,36516,999,5930,0,-.122E-5,0
ASTRA 3B,2010-021A,2026-07-14T13:31:43.718880,1.00269867,.00044228,1.5379,83.2250,20.4110,55.2191,0,U,36581,999,5914,0,.128E-5,0
COMSATBW-2,2010-021B,2026-07-14T13:28:44.006016,1.00273631,.00023926,0.0518,117.8274,15.5284,14.4770,0,U,36582,999,5923,0,.81E-6,0
BEIDOU-2 G3,2010-024A,2026-07-14T15:30:24.750720,1.00268407,.00069302,4.5781,61.3835,359.6036,183.6861,0,U,36590,999,5904,0,-.145E-5,0
